IRIDIUM 921             
1 24873U 97034E   24243.74355051  .00063614  00000+0  13051-2 0  9993
2 24873  86.3739 251.0213 0001752  65.2932 294.8507 15.45797901486672
IRIDIUM 26              
1 24903U 97043A   24243.93465088  .00001456  00000+0  48960-3 0  9994
2 24903  86.3935 232.3793 0002269  84.5849 275.5607 14.36531437415065
IRIDIUM 22              
1 24907U 97043E   24243.90886368  .00001297  00000+0  44518-3 0  9991
2 24907  86.3933 235.6858 0002320  90.6264 269.5199 14.35410664415125
DUMMY MASS 1            
1 24925U 97048A   24243.78983913  .00001082  00000+0  11956-3 0  9998
2 24925  86.3295 269.5077 0009228  94.7491 265.4787 14.86375913461982
DUMMY MASS 2            
1 24926U 97048B   24243.83862083  .00001106  00000+0  12300-3 0  9990
2 24926  86.3297 271.0425 0009957 103.2643 256.9692 14.86133716461774
IRIDIUM 29              
1 24944U 97051A   24243.33075568  .00001020  00000+0  34549-3 0  9997
2 24944  86.3901 265.8088 0002482  95.2228 264.9252 14.35858355411523
IRIDIUM 33              
1 24946U 97051C   24243.77662141  .00000704  00000+0  24287-3 0  9992
2 24946  86.3816 264.8686 0006207 318.4600  41.6124 14.34475270411108
IRIDIUM 28              
1 24948U 97051E   24243.77292307  .00001040  00000+0  34593-3 0  9992
2 24948  86.3907 263.3019 0002001  82.3259 277.8165 14.36814704412133
